{
  "id": 790055453,
  "type": "Feature",
  "properties": {
    "addr:city":"Brazil",
    "addr:full":"100 E National Ave Brazil, In 47834-2626",
    "addr:house_number":"100",
    "addr:housenumber":"100",
    "addr:phone":"+1 812-446-4036",
    "addr:postcode":"47834-2626",
    "addr:road":"E National Ave",
    "addr:state":"IN",
    "addr:street":"E National Ave",
    "edtf:cessation":"uuuu",
    "edtf:inception":"uuuu",
    "geom:area":0.0,
    "geom:bbox":"-87.12626,39.52348,-87.12626,39.52348",
    "geom:latitude":39.52348,
    "geom:longitude":-87.12626,
    "iso:country":"US",
    "mz:hierarchy_label":1,
    "mz:is_current":1,
    "sg:address":"100 E National Ave",
    "sg:city":"Brazil",
    "sg:classifiers":[
        {
            "category":"Museum",
            "subcategory":"",
            "type":"Entertainment"
        }
    ],
    "sg:owner":"simplegeo",
    "sg:phone":"+1 812 446 4036",
    "sg:postcode":"47834",
    "sg:province":"IN",
    "src:geom":"mudf",
    "wof:airports":[
        102533957
    ],
    "wof:belongsto":[],
    "wof:breaches":[],
    "wof:concordances":{
        "mudf:mid":8401800398,
        "sg:id":"SG_78FmeRhiJ7zZSeq6NIks0L_39.523438_-87.126077@1294102998"
    },
    "wof:country":"US",
    "wof:created":1462592781,
    "wof:geomhash":"d1dcdc039bb22e12a5cff191d4d90475",
    "wof:hierarchy":[],
    "wof:id":790055453,
    "wof:lastmodified":1534186052,
    "wof:name":"Clay County Historical Society",
    "wof:parent_id":-1,
    "wof:placetype":"venue",
    "wof:repo":"whosonfirst-data-venue-us-in",
    "wof:superseded_by":[],
    "wof:supersedes":[],
    "wof:tags":[]
},
  "bbox": [
    -87.12626,
    39.52348,
    -87.12626,
    39.52348
],
  "geometry": {"coordinates":[-87.12626,39.52348],"type":"Point"}
}